<?xml version="1.0" encoding="UTF-8"?>
<kml xmlns="http://www.opengis.net/kml/2.2"><Document><name>Rusya Gezisi — Mekanlar</name><Style id="work"><IconStyle><Icon><href>http://maps.google.com/mapfiles/kml/paddle/blu-circle.png</href></Icon></IconStyle></Style><Style id="afternoon"><IconStyle><Icon><href>http://maps.google.com/mapfiles/kml/paddle/grn-circle.png</href></Icon></IconStyle></Style><Style id="evening"><IconStyle><Icon><href>http://maps.google.com/mapfiles/kml/paddle/purple-circle.png</href></Icon></IconStyle></Style><Style id="transport"><IconStyle><Icon><href>http://maps.google.com/mapfiles/kml/paddle/ylw-circle.png</href></Icon></IconStyle></Style><Style id="problem"><IconStyle><Icon><href>http://maps.google.com/mapfiles/kml/paddle/wht-circle.png</href></Icon></IconStyle></Style><Folder><name>Moskova · Çalışma</name><Placemark><name>Stars Coffee (Arbat)</name><description><![CDATA[Dec 19 · Çalışma 08:00-16:00<br/>Stars Coffee (Новый Арбат)<br/>ул. Новый Арбат, 11, стр. 1, 1 этаж, Москва<br/>Şube: Novy Arbat 11с1 – zincirin ilk/amiral şubesi (Arbatskaya metrosu, Arbat Caddesi'ne ~200 m)<br/>Durum: açık<br/>Starbucks'ın yerini alan Rus zincirinin Ağustos 2022'de açılan ilk şubesi; her gün 08:00–23:00, Wi‑Fi var. Alternatif: yaya Arbat Caddesi üzerindeki şube (ул. Арбат, 19; 08:00–23:00, 2GIS'te 4.9).<br/><a href="https://www.google.com/maps/search/?api=1&query=55.752251,37.594922">Google Maps</a> · <a href="https://yandex.ru/maps/?pt=37.594922,55.752251&z=17&l=map">Yandex Maps</a>]]></description><styleUrl>#work</styleUrl><Point><coordinates>37.594922,55.752251,0</coordinates></Point></Placemark><Placemark><name>Surf Coffee x Milyutinsky</name><description><![CDATA[Dec 20 · Çalışma 08:00-16:00<br/>Surf Coffee x G-Spot<br/>Мясницкая ул., 16, 1 этаж, Москва<br/>Şube: Surf Coffee x G-Spot – Мясницкая 16, Милютинский пер. ağzında (~60 m); zincirin Moskova'daki ilk şubesi<br/>Durum: açık<br/>'Surf Coffee x Milyutinsky' adında bir şube yok; Milyutinsky Sokağı'nın Myasnitskaya'ya çıktığı köşedeki tek Surf şubesi G-Spot. Hafta içi 08:00–23:00, hafta sonu 09/10:00–23:00; Lubyanka/Chistye Prudy metrolarına yakın, HSE öğrencileriyle kalabalık olabilir.<br/><a href="https://www.google.com/maps/search/?api=1&query=55.760984,37.632282">Google Maps</a> · <a href="https://yandex.ru/maps/?pt=37.632282,55.760984&z=17&l=map">Yandex Maps</a>]]></description><styleUrl>#work</styleUrl><Point><coordinates>37.632282,55.760984,0</coordinates></Point></Placemark><Placemark><name>Skuratov Coffee</name><description><![CDATA[Dec 21 · Çalışma 08:00-16:00<br/>Dec 28 · Çalışma 08:00-16:00<br/>Skuratov Coffee (Калашный переулок)<br/>Калашный пер., 5, 1 этаж (БЦ «Калашный»), Москва<br/>Şube: Калашный пер. 5 – Arbatskaya metrosu yakını; Kurtarıcı İsa Katedrali'ne ~15 dk yürüyüş, Zaryadye'ye ~25 dk yürüyüş / 2 durak metro<br/>Durum: açık<br/>Omsk çıkışlı nitelikli kahve zincirinin Moskova'daki ilk kafesi; her gün 06:55–22:05, 2GIS'te 5.0 (567 yorum). Zaryadye'ye daha yakın alternatif: Большой Овчинниковский пер. 16 (ТДЦ «Аркадия», laptopla çalışmaya uygun).<br/><a href="https://www.google.com/maps/search/?api=1&query=55.755107,37.60147">Google Maps</a> · <a href="https://yandex.ru/maps/?pt=37.60147,55.755107&z=17&l=map">Yandex Maps</a>]]></description><styleUrl>#work</styleUrl><Point><coordinates>37.60147,55.755107,0</coordinates></Point></Placemark><Placemark><name>ABC Coffee Roasters</name><description><![CDATA[Dec 22 · Çalışma 08:00-16:00<br/>Dec 29 · Çalışma 08:00-16:00<br/>ABC Coffee Roasters (Покровка)<br/>ул. Покровка, 7/9-11, стр. 1, 1 этаж, Москва<br/>Şube: Покровка 7/9-11с1 – zincirin ilk kafesi (Kitay-gorod metrosu; turuncu hatla VDNKh'ye aktarmasız, Kurskaya'dan mavi hatla İzmailovo'ya)<br/>Durum: açık<br/>Japon minimalizmi tarzındaki nitelikli kahve zincirinin ilk kafesi; hafta içi 08:00–22:00, hafta sonu 10:00–22:00, 2GIS'te 4.9. Yorumlarda oturma yerinin az olduğu belirtiliyor; kalabalıksa yakındaki Милютинский пер. 3 şubesi alternatif.<br/><a href="https://www.google.com/maps/search/?api=1&query=55.759009,37.642162">Google Maps</a> · <a href="https://yandex.ru/maps/?pt=37.642162,55.759009&z=17&l=map">Yandex Maps</a>]]></description><styleUrl>#work</styleUrl><Point><coordinates>37.642162,55.759009,0</coordinates></Point></Placemark><Placemark><name>Cooperative Chernyi</name><description><![CDATA[Dec 23 · Çalışma 08:00-16:00<br/>Dec 31 · Çalışma 08:00-16:00<br/>Кооператив «Чёрный»<br/>Лялин пер., 5, стр. 1, 1 этаж, Москва<br/>Şube: Лялин пер. 5с1 – kooperatifin tek/ana kafesi (Kurskaya / Chistye Prudy metrolarına ~10 dk)<br/>Durum: açık<br/>Kendi kahvesini kavuran, çalışan ortaklı ünlü nitelikli kahve kooperatifinin büyük kafesi; hafta içi 08:00–23:00, hafta sonu 10:00–23:00 (OSM'de pazartesi 19:00'a kadar görünüyor). Ücretsiz Wi‑Fi; 2GIS'te 4.9.<br/><a href="https://www.google.com/maps/search/?api=1&query=55.76002,37.651832">Google Maps</a> · <a href="https://yandex.ru/maps/?pt=37.651832,55.76002&z=17&l=map">Yandex Maps</a>]]></description><styleUrl>#work</styleUrl><Point><coordinates>37.651832,55.76002,0</coordinates></Point></Placemark><Placemark><name>Surf Coffee x Hlebozavod</name><description><![CDATA[Dec 24 · Çalışma 08:00-16:00<br/>Surf Coffee x Xleb<br/>Новодмитровская ул., 1, стр. 12, 1 этаж (Хлебозавод №9), Москва<br/>Şube: Surf Coffee x Xleb – Хлебозавод №9, стр. 12 (Flacon'un hemen kuzeyi)<br/>Durum: açık<br/>Eski ekmek fabrikasından dönüştürülmüş Hlebozavod №9 yaratıcı kümesindeki Surf şubesi (~20 kişilik, Wi‑Fi, laptopla çalışmaya uygun). 2GIS'e göre her gün 08:00–22:00 (küme sitesi 09:00 diyor); Dmitrovskaya metrosuna ~5 dk.<br/><a href="https://www.google.com/maps/search/?api=1&query=55.807137,37.583589">Google Maps</a> · <a href="https://yandex.ru/maps/?pt=37.583589,55.807137&z=17&l=map">Yandex Maps</a>]]></description><styleUrl>#work</styleUrl><Point><coordinates>37.583589,55.807137,0</coordinates></Point></Placemark><Placemark><name>Roaster Coffee</name><description><![CDATA[Dec 25 · Çalışma 08:00-16:00<br/>Jan 02 · Çalışma 08:00-16:00<br/>Roaster Coffee (Ростер)<br/>4-я Тверская-Ямская ул., 2/11, стр. 2, 1 этаж, Москва<br/>Şube: 4-я Тверская-Ямская 2/11с2 (Mayakovskaya) – 2 şubeli küçük zincirin ana kafesi; diğeri Долгоруковская ул. 32<br/>Durum: açık<br/>Moskova'da gerçekten 'Roaster Coffee' adını taşıyan specialty kahve + yemek kafesi; 08:30–22:00 (hafta sonu 10:00'dan), 2GIS'te 4.9 (267 oy). Gorki Parkı/Novodeviçi'ye yakın değil: Mayakovskaya'dan metroyla ~20–25 dk.<br/><a href="https://www.google.com/maps/search/?api=1&query=55.771968,37.598188">Google Maps</a> · <a href="https://yandex.ru/maps/?pt=37.598188,55.771968&z=17&l=map">Yandex Maps</a>]]></description><styleUrl>#work</styleUrl><Point><coordinates>37.598188,55.771968,0</coordinates></Point></Placemark><Placemark><name>Introvert Place (KAPANMIŞ)</name><description><![CDATA[Dec 26 · Çalışma 08:00-16:00<br/>Jan 03 · Çalışma 08:00-16:00<br/>Introvert Place (Introvert.)<br/>Мясницкая ул., 41, стр. 3, 1 этаж (двор), Москва<br/>Durum: KAPANMIŞ<br/>Afisha 'Ресторан закрыт' diyor; Yandex'te aynı kayıt önce Here'n'now adını almış, şimdi 'Shut down' olarak işaretli (Here'n'now 2-й Сыромятнический пер. 1'e taşınmış). Moskova'da bu adla başka bir mekân bulunamadı.<br/>Krasnye Vorota yakınında, laptopla sessiz çalışmak için ayrı 'introvert' katı olan vegan menülü specialty kafeydi. Artık açık değil; plan için başka bir çalışma kafesi seçilmeli.<br/><a href="https://www.google.com/maps/search/?api=1&query=55.768315,37.642562">Google Maps</a> · <a href="https://yandex.ru/maps/?pt=37.642562,55.768315&z=17&l=map">Yandex Maps</a>]]></description><styleUrl>#problem</styleUrl><Point><coordinates>37.642562,55.768315,0</coordinates></Point></Placemark><Placemark><name>Stars Coffee (Tverskaya)</name><description><![CDATA[Dec 27 · Çalışma 08:00-16:00<br/>Stars Coffee (Тверская)<br/>Тверская ул., 8, корп. 1, стр. 3 (Тверская площадь), Москва<br/>Şube: Тверская ул., 8к1с3 – Tverskaya Meydanı tarafı (zincirin Tverskaya Caddesi üzerindeki tek şubesi)<br/>Durum: açık<br/>Tverskaya Caddesi'nde, Tverskaya Meydanı/Stoleshnikov köşesinde küçük Stars Coffee şubesi (~20 kişilik). Listelerde açılış 10:00 görünüyor (bir kaynakta 11:00–12:00), yani 08:00'de çalışmaya başlamak için uygun olmayabilir.<br/><a href="https://www.google.com/maps/search/?api=1&query=55.761793,37.61065">Google Maps</a> · <a href="https://yandex.ru/maps/?pt=37.61065,55.761793&z=17&l=map">Yandex Maps</a>]]></description><styleUrl>#work</styleUrl><Point><coordinates>37.61065,55.761793,0</coordinates></Point></Placemark><Placemark><name>Surf Coffee x Baumanskaya</name><description><![CDATA[Dec 30 · Çalışma 08:00-16:00<br/>Surf Coffee x Lucky<br/>Бауманская ул., 33/2, стр. 1, цокольный этаж, Москва<br/>Şube: Surf Coffee x Lucky – Бауманская ул. 33/2с1, Baumanskaya metrosunun hemen yanı<br/>Durum: açık<br/>Baumanskaya metrosunun yanında, bodrum katta Surf şubesi; resmi sitede 'çalışma ve dinlenme alanlarına ayrılmış' diye tanıtılıyor. Hafta içi 08:00–22:00, hafta sonu 09:00–22:00; 2GIS'te 5.0 (348 yorum).<br/><a href="https://www.google.com/maps/search/?api=1&query=55.772549,37.678792">Google Maps</a> · <a href="https://yandex.ru/maps/?pt=37.678792,55.772549&z=17&l=map">Yandex Maps</a>]]></description><styleUrl>#work</styleUrl><Point><coordinates>37.678792,55.772549,0</coordinates></Point></Placemark></Folder><Folder><name>Moskova · Gezi</name><Placemark><name>Old Arbat Street</name><description><![CDATA[Dec 19 · Gezi 16:00-19:30<br/>Старый Арбат (улица Арбат)<br/>улица Арбат, Москва<br/>Durum: açık<br/>Moskova'nın en ünlü ~1 km'lik yaya caddesi: Arbatskaya Meydanı'ndan Smolenskaya Meydanı'na uzanıyor; sokak sanatçıları, ressam tezgâhları, hediyelik eşya dükkânları ve kafelerle dolu. Pin caddenin orta kesiminde (Arbat 30–36 civarı); iki ucunda Arbatskaya ve Smolenskaya metroları var.<br/><a href="https://www.google.com/maps/search/?api=1&query=55.749167,37.590556">Google Maps</a> · <a href="https://yandex.ru/maps/?pt=37.590556,55.749167&z=17&l=map">Yandex Maps</a>]]></description><styleUrl>#afternoon</styleUrl><Point><coordinates>37.590556,55.749167,0</coordinates></Point></Placemark><Placemark><name>Red Square</name><description><![CDATA[Dec 20 · Gezi 16:00-19:30<br/>Dec 31 · Akşam 19:30+<br/>Красная площадь<br/>Красная площадь, Москва<br/>Durum: açık<br/>Yılbaşı gecesi: 2025/26'da Kızıl Meydan güvenlik gerekçesiyle 31 Aralık 18:00 – 1 Ocak 10:00 arası ziyaretçilere kapatıldı (yalnızca GUM buz pisti çalıştı); Kommersant'a göre aynı kısıtlama 2023 ve 2024'te de uygulandı ve Moskova havai fişek gösterisi de yapmadı. 2026/27 için de benzer kapanma beklenmeli — 31 Aralık akşamı için alternatif plan yapın.<br/>Moskova'nın ana meydanı: Kremlin duvarı, Lenin Anıtmezarı, Aziz Vasil Katedrali, GUM ve Tarih Müzesi çevresinde. Kışın meydanda GUM buz pisti ve yılbaşı panayırı kuruluyor; meydan etkinlik/prova günlerinde geçici olarak kapatılabiliyor.<br/><a href="https://www.google.com/maps/search/?api=1&query=55.754167,37.62">Google Maps</a> · <a href="https://yandex.ru/maps/?pt=37.62,55.754167&z=17&l=map">Yandex Maps</a>]]></description><styleUrl>#afternoon</styleUrl><Point><coordinates>37.62,55.754167,0</coordinates></Point></Placemark><Placemark><name>St. Basil's Cathedral</name><description><![CDATA[Dec 20 · Gezi 16:00-19:30<br/>Покровский собор (Храм Василия Блаженного)<br/>Красная площадь, 7, Москва<br/>Durum: açık<br/>16. yüzyıldan kalma rengârenk soğan kubbeli katedral; Devlet Tarih Müzesi'ne bağlı müze olarak biletle geziliyor. Kaynaklara göre kasım–aralık 11:00–17:00 açık; kasa ve giriş kapanıştan 1 saat önce kapanıyor, her ayın ilk çarşambası kapalı — içeri girmek için 16:00'dan önce varın.<br/><a href="https://www.google.com/maps/search/?api=1&query=55.7525,37.623056">Google Maps</a> · <a href="https://yandex.ru/maps/?pt=37.623056,55.7525&z=17&l=map">Yandex Maps</a>]]></description><styleUrl>#afternoon</styleUrl><Point><coordinates>37.623056,55.7525,0</coordinates></Point></Placemark><Placemark><name>GUM</name><description><![CDATA[Dec 20 · Gezi 16:00-19:30<br/>ГУМ<br/>Красная площадь, 3, Москва<br/>Durum: açık<br/>Kızıl Meydan'ın doğu cephesini kaplayan 19. yy sonu pasaj mağaza; cam tavanlı galerileri, kafe-restoranları ve kışın ışıklandırılan cephesiyle ünlü. OSM'e göre her gün 10:00–22:00 açık; meydandaki GUM buz pisti de kışın buradan işletiliyor.<br/><a href="https://www.google.com/maps/search/?api=1&query=55.754703,37.621438">Google Maps</a> · <a href="https://yandex.ru/maps/?pt=37.621438,55.754703&z=17&l=map">Yandex Maps</a>]]></description><styleUrl>#afternoon</styleUrl><Point><coordinates>37.621438,55.754703,0</coordinates></Point></Placemark><Placemark><name>Zaryadye Park &amp; Floating Bridge</name><description><![CDATA[Dec 21 · Gezi 16:00-19:30<br/>Парк «Зарядье»<br/>улица Варварка, 6, стр. 1, Москва<br/>Durum: açık<br/>Kremlin'in hemen yanında 2017'de açılan modern park; Moskova Nehri üzerine V şeklinde çıkıntı yapan 'Paryaşçiy Most' (Süzülen Köprü) Kremlin ve nehir manzarası sunuyor. Park 7/24 açık ve ücretsiz; kaynaklara göre iç mekân pavyonları pazartesi 12:00–21:00, diğer günler 10:00–21:00.<br/><a href="https://www.google.com/maps/search/?api=1&query=55.751217,37.628935">Google Maps</a> · <a href="https://yandex.ru/maps/?pt=37.628935,55.751217&z=17&l=map">Yandex Maps</a>]]></description><styleUrl>#afternoon</styleUrl><Point><coordinates>37.628935,55.751217,0</coordinates></Point></Placemark><Placemark><name>Парящий мост (Floating Bridge)</name><description><![CDATA[Zaryadye Park &amp; Floating Bridge]]></description><styleUrl>#afternoon</styleUrl><Point><coordinates>37.629405,55.749503,0</coordinates></Point></Placemark><Placemark><name>VDNKh</name><description><![CDATA[Dec 22 · Gezi 16:00-19:30<br/>ВДНХ — Главный вход (арка)<br/>проспект Мира, 119, Москва<br/>Durum: açık<br/>Sovyet dönemi dev sergi parkı; pin 'Traktörcü ve Kolhozcu Kadın' heykelli Ana Giriş Kemeri'nde. Arazi 7/24 açık ve ücretsiz; kışın Merkez Pavyon önünde büyük buz pisti kuruluyor. Kozmonotik Müzesi (msk-15) kemerin ~450 m güneyinde, VDNKh metrosunun yanında.<br/><a href="https://www.google.com/maps/search/?api=1&query=55.826276,37.637608">Google Maps</a> · <a href="https://yandex.ru/maps/?pt=37.637608,55.826276&z=17&l=map">Yandex Maps</a>]]></description><styleUrl>#afternoon</styleUrl><Point><coordinates>37.637608,55.826276,0</coordinates></Point></Placemark><Placemark><name>Museum of Cosmonautics</name><description><![CDATA[Dec 22 · Gezi 16:00-19:30<br/>Мемориальный музей космонавтики<br/>проспект Мира, 111, Москва<br/>Durum: açık<br/>'Uzayı Fethedenler' titanyum roket anıtının altındaki uzay müzesi: Sputnik, Vostok kapsülü, Gagarin ve Sovyet uzay programı eşyaları. Pazartesi kapalı; salı–pazar 10:00–19:00 (kasa 18:30), perşembe 21:00'e kadar — 22 Aralık salı ziyareti için uygun.<br/><a href="https://www.google.com/maps/search/?api=1&query=55.822571,37.639595">Google Maps</a> · <a href="https://yandex.ru/maps/?pt=37.639595,55.822571&z=17&l=map">Yandex Maps</a>]]></description><styleUrl>#afternoon</styleUrl><Point><coordinates>37.639595,55.822571,0</coordinates></Point></Placemark><Placemark><name>State Tretyakov Gallery</name><description><![CDATA[Dec 23 · Gezi 16:00-19:30<br/>Государственная Третьяковская галерея (Лаврушинский переулок)<br/>Лаврушинский переулок, 10, Москва<br/>Durum: açık<br/>Plandaki 23 Aralık bir çarşamba: müze 18:00'de kapanıyor, son giriş 17:00 — 16:00'da başlayan program için çok dar. Perşembe–cumartesi 21:00'e kadar açık olduğundan ziyareti 24 veya 26 Aralık'a kaydırmak daha mantıklı.<br/>Rus sanatının en büyük koleksiyonu (ikonalardan 20. yy başına); ana tarihi bina Lavruşinski sokağında. Pazartesi kapalı; salı, çarşamba ve pazar 10:00–18:00, perşembe–cumartesi 10:00–21:00; kasa ve giriş kapanıştan 1 saat önce kapanıyor.<br/><a href="https://www.google.com/maps/search/?api=1&query=55.741389,37.620864">Google Maps</a> · <a href="https://yandex.ru/maps/?pt=37.620864,55.741389&z=17&l=map">Yandex Maps</a>]]></description><styleUrl>#afternoon</styleUrl><Point><coordinates>37.620864,55.741389,0</coordinates></Point></Placemark><Placemark><name>Flacon Design Factory</name><description><![CDATA[Dec 24 · Gezi 16:00-19:30<br/>Дизайн завод (бывш. дизайн-завод «Флакон»)<br/>улица Большая Новодмитровская, 36, стр. 2, Москва<br/>Durum: açık<br/>'Flacon' markası 2021'de mülkiyet değişince bırakıldı; mekân aynı adreste 'Дизайн завод' (Design Zavod) adıyla faaliyette — haritada/taksi uygulamasında bu adla arayın.<br/>Eski kristal fabrikası binalarında yaratıcı kampüs: tasarım dükkânları, galeriler, kafeler ve etkinlik alanları. Resmi siteye göre alan 7/24 açık, mağazalar 11:00–22:00.<br/><a href="https://www.google.com/maps/search/?api=1&query=55.805017,37.585533">Google Maps</a> · <a href="https://yandex.ru/maps/?pt=37.585533,55.805017&z=17&l=map">Yandex Maps</a>]]></description><styleUrl>#afternoon</styleUrl><Point><coordinates>37.585533,55.805017,0</coordinates></Point></Placemark><Placemark><name>Gorky Park</name><description><![CDATA[Dec 25 · Gezi 16:00-19:30<br/>Парк Горького (ЦПКиО им. Горького)<br/>улица Крымский Вал, 9, Москва<br/>Durum: açık<br/>Moskova Nehri kıyısındaki merkezi park; pin Krımskiy Val caddesindeki anıtsal ana giriş kemerinin hemen içinde. Park 7/24 açık ve ücretsiz; kışın büyük buz pisti kuruluyor (pist açılış tarihi ve saatleri her sezon ayrıca duyuruluyor).<br/><a href="https://www.google.com/maps/search/?api=1&query=55.731353,37.604637">Google Maps</a> · <a href="https://yandex.ru/maps/?pt=37.604637,55.731353&z=17&l=map">Yandex Maps</a>]]></description><styleUrl>#afternoon</styleUrl><Point><coordinates>37.604637,55.731353,0</coordinates></Point></Placemark><Placemark><name>Moscow Metro Architecture Tour</name><description><![CDATA[Dec 26 · Gezi 16:00-19:30<br/>Станция метро «Комсомольская» (Кольцевая линия)<br/>Комсомольская площадь, Москва<br/>Durum: açık<br/>Metro mimarisi turu, Halka hattındaki Komsomolskaya'nın barok tavan mozaikleriyle başlıyor. İstasyondan çıkmadan tek girişle hat değiştirerek gezilebilir: Novoslobodskaya vitrayları, Mayakovskaya art deco tavan mozaikleri, Ploşçad Revolyutsii bronz heykelleri, Kiyevskaya (Halka) mozaik panoları, Arbatskaya avizeleri, Elektrozavodskaya tavan lambaları.<br/><a href="https://www.google.com/maps/search/?api=1&query=55.776486,37.656169">Google Maps</a> · <a href="https://yandex.ru/maps/?pt=37.656169,55.776486&z=17&l=map">Yandex Maps</a>]]></description><styleUrl>#afternoon</styleUrl><Point><coordinates>37.656169,55.776486,0</coordinates></Point></Placemark><Placemark><name>Metro: Komsomolskaya — Комсомольская (Кольцевая линия)</name><description><![CDATA[Moscow Metro Architecture Tour]]></description><styleUrl>#afternoon</styleUrl><Point><coordinates>37.656169,55.776486,0</coordinates></Point></Placemark><Placemark><name>Metro: Novoslobodskaya — Новослободская (Кольцевая линия)</name><description><![CDATA[Moscow Metro Architecture Tour]]></description><styleUrl>#afternoon</styleUrl><Point><coordinates>37.601167,55.779517,0</coordinates></Point></Placemark><Placemark><name>Metro: Mayakovskaya — Маяковская (Замоскворецкая линия)</name><description><![CDATA[Moscow Metro Architecture Tour]]></description><styleUrl>#afternoon</styleUrl><Point><coordinates>37.596956,55.768983,0</coordinates></Point></Placemark><Placemark><name>Metro: Ploshchad Revolyutsii — Площадь Революции (Арбатско-Покровская линия)</name><description><![CDATA[Moscow Metro Architecture Tour]]></description><styleUrl>#afternoon</styleUrl><Point><coordinates>37.62139,55.75639,0</coordinates></Point></Placemark><Placemark><name>Metro: Kiyevskaya — Киевская (Кольцевая линия)</name><description><![CDATA[Moscow Metro Architecture Tour]]></description><styleUrl>#afternoon</styleUrl><Point><coordinates>37.566488,55.743583,0</coordinates></Point></Placemark><Placemark><name>Metro: Arbatskaya — Арбатская (Арбатско-Покровская линия)</name><description><![CDATA[Moscow Metro Architecture Tour]]></description><styleUrl>#afternoon</styleUrl><Point><coordinates>37.606111,55.752222,0</coordinates></Point></Placemark><Placemark><name>Metro: Elektrozavodskaya — Электрозаводская (Арбатско-Покровская линия)</name><description><![CDATA[Moscow Metro Architecture Tour]]></description><styleUrl>#afternoon</styleUrl><Point><coordinates>37.70449,55.78188,0</coordinates></Point></Placemark><Placemark><name>Tverskaya Street</name><description><![CDATA[Dec 27 · Gezi 16:00-19:30<br/>Тверская улица<br/>Тверская улица, Москва<br/>Durum: açık<br/>Kremlin dibindeki Manejnaya Meydanı'ndan Triumfalnaya Meydanı'na uzanan Moskova'nın ana bulvarı; Stalin dönemi binalar, mağazalar ve kafelerle dolu. Pin caddenin orta kesiminde (Tverskaya 14 / Yeliseyev mağazası civarı), Puşkin Meydanı'na (msk-33) ~200 m.<br/><a href="https://www.google.com/maps/search/?api=1&query=55.763889,37.606389">Google Maps</a> · <a href="https://yandex.ru/maps/?pt=37.606389,55.763889&z=17&l=map">Yandex Maps</a>]]></description><styleUrl>#afternoon</styleUrl><Point><coordinates>37.606389,55.763889,0</coordinates></Point></Placemark><Placemark><name>Pushkin Square</name><description><![CDATA[Dec 27 · Gezi 16:00-19:30<br/>Пушкинская площадь<br/>Пушкинская площадь, Москва<br/>Durum: açık<br/>Tverskaya Caddesi üzerindeki meydan; ortada Puşkin heykeli, çevresinde Izvestiya binası ve bulvar halkası. Yılbaşı döneminde genellikle ışıklı süslemeler kuruluyor; altında Puşkinskaya/Tverskaya/Çehovskaya metro aktarma istasyonu var.<br/><a href="https://www.google.com/maps/search/?api=1&query=55.765556,37.605833">Google Maps</a> · <a href="https://yandex.ru/maps/?pt=37.605833,55.765556&z=17&l=map">Yandex Maps</a>]]></description><styleUrl>#afternoon</styleUrl><Point><coordinates>37.605833,55.765556,0</coordinates></Point></Placemark><Placemark><name>Cathedral of Christ the Saviour</name><description><![CDATA[Dec 28 · Gezi 16:00-19:30<br/>Храм Христа Спасителя<br/>улица Волхонка, 15, Москва<br/>Durum: açık<br/>Kaynaklara göre pazartesi 13:00'te açılıyor ve kapanış saati kaynaklarda 17:00–18:00 arasında değişiyor; 28 Aralık pazartesi ziyaretinden önce saatleri resmi siteden (xxc.ru) teyit edin.<br/>Rusya'nın en büyük Ortodoks katedrali; 1931'de yıkılıp 1990'larda yeniden inşa edildi, giriş ücretsiz. Arkasındaki Patriarşiy yaya köprüsünden Kremlin ve nehir manzarası çok güzel.<br/><a href="https://www.google.com/maps/search/?api=1&query=55.744444,37.605556">Google Maps</a> · <a href="https://yandex.ru/maps/?pt=37.605556,55.744444&z=17&l=map">Yandex Maps</a>]]></description><styleUrl>#afternoon</styleUrl><Point><coordinates>37.605556,55.744444,0</coordinates></Point></Placemark><Placemark><name>Izmailovo Kremlin</name><description><![CDATA[Dec 29 · Gezi 16:00-19:30<br/>Кремль в Измайлово<br/>Измайловское шоссе, 73Ж, Москва<br/>Durum: açık<br/>Rus masalı tarzında renkli ahşap 'kremlin' kompleksi (küçük müzeler, atölyeler); hemen yanındaki Vernisaj pazarı matruşka, şal, hediyelik eşya için Moskova'nın klasik adresi. Kaynaklara göre Vernisaj hafta içi ~09:00–18:00 açık, bit pazarı yalnızca hafta sonu — 29 Aralık salı olduğundan tezgâh sayısı az olabilir.<br/><a href="https://www.google.com/maps/search/?api=1&query=55.794321,37.750525">Google Maps</a> · <a href="https://yandex.ru/maps/?pt=37.750525,55.794321&z=17&l=map">Yandex Maps</a>]]></description><styleUrl>#afternoon</styleUrl><Point><coordinates>37.750525,55.794321,0</coordinates></Point></Placemark><Placemark><name>Artplay Design Center</name><description><![CDATA[Dec 30 · Gezi 16:00-19:30<br/>Центр дизайна ARTPLAY<br/>улица Нижняя Сыромятническая, 10, Москва<br/>Durum: açık<br/>Kurskaya/Çkalovskaya metrolarına yakın eski fabrika binalarında tasarım ve mimarlık kümesi: showroomlar, galeriler ve Artplay Media multimedya sergileri. Kaynaklara göre alan her gün 08:00–23:00 açık; sergiler biletli.<br/><a href="https://www.google.com/maps/search/?api=1&query=55.752261,37.669773">Google Maps</a> · <a href="https://yandex.ru/maps/?pt=37.669773,55.752261&z=17&l=map">Yandex Maps</a>]]></description><styleUrl>#afternoon</styleUrl><Point><coordinates>37.669773,55.752261,0</coordinates></Point></Placemark><Placemark><name>Chistye Prudy</name><description><![CDATA[Jan 01 · Gezi 16:00-19:30<br/>Чистые пруды<br/>Чистопрудный бульвар, Москва<br/>Durum: açık<br/>Bulvar Halkası'ndaki Çistoprudnıy Bulvarı'nın ortasındaki gölet; tramvay hattı, kafeler ve tarihi binalarla çevrili sakin bir yürüyüş rotası. Kışın gölet genellikle buz pistine dönüşüyor; en yakın metro Çistıye Prudı.<br/><a href="https://www.google.com/maps/search/?api=1&query=55.760833,37.644722">Google Maps</a> · <a href="https://yandex.ru/maps/?pt=37.644722,55.760833&z=17&l=map">Yandex Maps</a>]]></description><styleUrl>#afternoon</styleUrl><Point><coordinates>37.644722,55.760833,0</coordinates></Point></Placemark><Placemark><name>Novodevichy Convent &amp; Pond</name><description><![CDATA[Jan 02 · Gezi 16:00-19:30<br/>Новодевичий монастырь<br/>Новодевичий проезд, 1, Москва<br/>Durum: açık<br/>Manastır 17:00'de kapanıyor ve ocak başında hava ~16:00'da kararıyor: 16:00'da başlayan programda içeri girmeye vakit çok az — daha erken gelin ya da gölet kıyısından dış manzarayla yetinin.<br/>16. yy'dan kalma, UNESCO Dünya Mirası listesindeki manastır; yanındaki Novodeviçi göletinden görünen kule ve kubbeler en bilinen manzarası. Bölgeye giriş ücretsiz (her gün 09:00–17:00); müze bölümleri biletli, salı ve ayın ilk pazartesi kapalı.<br/><a href="https://www.google.com/maps/search/?api=1&query=55.725972,37.556583">Google Maps</a> · <a href="https://yandex.ru/maps/?pt=37.556583,55.725972&z=17&l=map">Yandex Maps</a>]]></description><styleUrl>#afternoon</styleUrl><Point><coordinates>37.556583,55.725972,0</coordinates></Point></Placemark><Placemark><name>Sparrow Hills Viewpoint</name><description><![CDATA[Jan 03 · Gezi 16:00-19:30<br/>Смотровая площадка на Воробьёвых горах<br/>улица Косыгина, Воробьёвы горы, Москва<br/>Durum: açık<br/>Moskova Nehri'nin ~80 m yukarısındaki seyir terası: Lujniki Stadı, Moskova City gökdelenleri ve şehir panoraması; arkada MGU ana binası. 7/24 açık ve ücretsiz; terasın yanında Lujniki'ye inen teleferik istasyonu var.<br/><a href="https://www.google.com/maps/search/?api=1&query=55.709356,37.542332">Google Maps</a> · <a href="https://yandex.ru/maps/?pt=37.542332,55.709356&z=17&l=map">Yandex Maps</a>]]></description><styleUrl>#afternoon</styleUrl><Point><coordinates>37.542332,55.709356,0</coordinates></Point></Placemark></Folder><Folder><name>Moskova · Akşam</name><Placemark><name>Varenichnaya No.1</name><description><![CDATA[Dec 19 · Akşam 19:30+<br/>Вареничная №1<br/>ул. Арбат, 29, Москва<br/>Şube: Arbat, 29 (Stary Arbat şubesi)<br/>Durum: açık<br/>Sovyet nostaljisi dekorlu, uygun fiyatlı Rus-Ukrayna mutfağı zinciri (varenik, pelmeni, borş). Arbat 29 şubesi yaya caddesi Stary Arbat üzerinde; her gün 11:00–23:00, Aralık 2025 tarihli yorumlarla açık görünüyor.<br/><a href="https://www.google.com/maps/search/?api=1&query=55.749904,37.593388">Google Maps</a> · <a href="https://yandex.ru/maps/?pt=37.593388,55.749904&z=17&l=map">Yandex Maps</a>]]></description><styleUrl>#evening</styleUrl><Point><coordinates>37.593388,55.749904,0</coordinates></Point></Placemark><Placemark><name>Kamchatka (beer bar) (KAPANMIŞ)</name><description><![CDATA[Dec 19 · Akşam 19:30+<br/>Камчатка (пивбар)<br/>ул. Кузнецкий Мост, 7, Москва<br/>Durum: KAPANMIŞ<br/>Kalıcı olarak kapandı: Moskvich Mag (Ocak 2025) barın 2020 sonunda kapandığını yazıyor, Yandex Haritalar 'Shut down' gösteriyor. 2024'te Konyushkovskaya'da açılan 'Kamchatka' bistro-grill de bir yıl dolmadan kapandı.<br/>Arkadiy Novikov'un Sovyet birahanesi tarzındaki ucuz bira barıydı (Kuznetsky Most 7). Artık yok; yerine yakındaki başka bir bira barı planlanmalı.<br/><a href="https://www.google.com/maps/search/?api=1&query=55.761798,37.619079">Google Maps</a> · <a href="https://yandex.ru/maps/?pt=37.619079,55.761798&z=17&l=map">Yandex Maps</a>]]></description><styleUrl>#problem</styleUrl><Point><coordinates>37.619079,55.761798,0</coordinates></Point></Placemark><Placemark><name>Mendeleev Bar</name><description><![CDATA[Dec 20 · Akşam 19:30+<br/>Mendeleev. Bar &amp; Music (Менделеев)<br/>ул. Петровка, 20/1, Москва<br/>Durum: açık<br/>Petrovka'da, Lucky Noodles adlı küçük Çin erişte dükkânının içindeki gizli kapıdan girilen tonozlu bodrum speakeasy kokteyl barı. Her gün 18:00'de açılıyor; DJ setleri ve canlı müzik geceleri var.<br/><a href="https://www.google.com/maps/search/?api=1&query=55.764149,37.617628">Google Maps</a> · <a href="https://yandex.ru/maps/?pt=37.617628,55.764149&z=17&l=map">Yandex Maps</a>]]></description><styleUrl>#evening</styleUrl><Point><coordinates>37.617628,55.764149,0</coordinates></Point></Placemark><Placemark><name>Propaganda Club (KAPANMIŞ)</name><description><![CDATA[Dec 21 · Akşam 19:30+<br/>Пропаганда<br/>Большой Златоустинский пер., 7с1, Москва<br/>Durum: KAPANMIŞ<br/>Kalıcı olarak kapandı: 27 yıl sonra Temmuz 2024 sonunda kapandı (Kommersant, Forbes). BFM Şubat 2025'te mekânın 300 milyon rubleye satışa çıkarıldığını yazdı; Yandex Haritalar 'Shut down', OSM de kapalı (was:amenity) gösteriyor.<br/>1997'den beri Kitay-gorod'da açık olan, Moskova'nın en eski house/techno kulüplerinden biriydi (gündüz kafe, gece kulüp). Techno gecesi için bölgedeki başka bir kulüp seçilmeli.<br/><a href="https://www.google.com/maps/search/?api=1&query=55.758554,37.632779">Google Maps</a> · <a href="https://yandex.ru/maps/?pt=37.632779,55.758554&z=17&l=map">Yandex Maps</a>]]></description><styleUrl>#problem</styleUrl><Point><coordinates>37.632779,55.758554,0</coordinates></Point></Placemark><Placemark><name>Blanc (KAPANMIŞ)</name><description><![CDATA[Dec 22 · Akşam 19:30+<br/>Blanc (Бланк)<br/>Хохловский пер., 7-9с2, Москва<br/>Durum: KAPANMIŞ<br/>Kalıcı olarak kapandı: 25 Aralık 2025'te kapanışını duyurdu (Vedomosti, Afisha Daily), Ocak 2026 tatilindeki veda etkinlikleriyle kapandı; sebep binanın işlevinin değişmesi. Yandex Haritalar 'Shut down', OSM de kapalı (was:amenity) gösteriyor; taşınma haberi yok.<br/>Kitay-gorod yakınında, Hohlovsky sokağındaki tarihi avlulu binada, bitki dolu showroom tarzı Avrupa mutfağı restoranı ve etkinlik mekânıydı (2019–2026). Moskova'da bu adla bilinen en tanınmış mekân bu; Trehgorny Val'deki 'Blanc Cafe' 2021'de kapanmıştı, 'Cheval Blanc' ise farklı bir mekân.<br/><a href="https://www.google.com/maps/search/?api=1&query=55.755955,37.643158">Google Maps</a> · <a href="https://yandex.ru/maps/?pt=37.643158,55.755955&z=17&l=map">Yandex Maps</a>]]></description><styleUrl>#problem</styleUrl><Point><coordinates>37.643158,55.755955,0</coordinates></Point></Placemark><Placemark><name>Kitay-Gorod (bar area)</name><description><![CDATA[Dec 23 · Akşam 19:30+<br/>Китай-город (барный район у метро)<br/>район м. «Китай-город»: Маросейка, Покровка, Солянка, Хохловский пер., Москва<br/>Durum: açık<br/>Alan pini: Kitay-gorod metro istasyonu; barlar Maroseyka, Pokrovka, Solyanka, Zabelina ve Hohlovsky/Petroverigsky sokaklarında yoğunlaşıyor (Black Swan pub Solyanka 1/2'de, ~300 m). Plandaki 'Zinc' bulunamadı; 'Blanc' ve 'Propaganda' kapandı.<br/><a href="https://www.google.com/maps/search/?api=1&query=55.755652,37.633565">Google Maps</a> · <a href="https://yandex.ru/maps/?pt=37.633565,55.755652&z=17&l=map">Yandex Maps</a>]]></description><styleUrl>#evening</styleUrl><Point><coordinates>37.633565,55.755652,0</coordinates></Point></Placemark><Placemark><name>Black Swan (bar)</name><description><![CDATA[Dec 23 · Akşam 19:30+<br/>The Black Swan (Блэк Свон)<br/>ул. Солянка, 1/2с1, Москва<br/>Durum: açık<br/>Kitay-gorod metrosuna ~5 dk, Solyanka'da iki katlı, antika mobilyalı Viktorya dönemi havasında İngiliz/İrlanda pub'ı; İngiliz, İrlanda ve İskoç biraları. Giriş Zabelina sokağı tarafından; Pz–Per ve Paz 12:00–00:00, Cum–Cmt 06:00'ya kadar.<br/><a href="https://www.google.com/maps/search/?api=1&query=55.754476,37.637927">Google Maps</a> · <a href="https://yandex.ru/maps/?pt=37.637927,55.754476&z=17&l=map">Yandex Maps</a>]]></description><styleUrl>#evening</styleUrl><Point><coordinates>37.637927,55.754476,0</coordinates></Point></Placemark><Placemark><name>Rule Taproom</name><description><![CDATA[Dec 24 · Akşam 19:30+<br/>Rule Taproom<br/>Староваганьковский пер., 19с7, Москва<br/>Durum: açık<br/>Şubat 2026'da bir 2GIS yorumu barın tadilat için kapalı olduğunu bildirdi; ancak Yandex'te Mart–Ağustos 2026 tarihli yorumlar ve 'Good place 2026' ödülü var, 2GIS de faal gösteriyor. Gitmeden önce çalışma saatlerini kontrol etmekte fayda var.<br/>Zagovor bira fabrikasıyla bağlantılı, ~27 musluklu ve geniş şişe seçkili küçük craft bira barı; Kremlin/Borovitskaya'ya birkaç dakika, bir avlu içinde. Pz–Per ve Paz 16:00–00:00, Cum–Cmt 02:00'ye kadar; mutfak yok, sadece atıştırmalık.<br/><a href="https://www.google.com/maps/search/?api=1&query=55.751298,37.607021">Google Maps</a> · <a href="https://yandex.ru/maps/?pt=37.607021,55.751298&z=17&l=map">Yandex Maps</a>]]></description><styleUrl>#evening</styleUrl><Point><coordinates>37.607021,55.751298,0</coordinates></Point></Placemark><Placemark><name>Garage Museum (Café)</name><description><![CDATA[Dec 25 · Akşam 19:30+<br/>Музей современного искусства «Гараж» (Кафе «Гаража»)<br/>ул. Крымский Вал, 9, стр. 32, Парк Горького, Москва<br/>Durum: açık<br/>Gorki Parkı içindeki çağdaş sanat müzesi (Rem Koolhaas/OMA'nın dönüştürdüğü Sovyet dönemi 'Vremena Goda' restoran binası). Kafe zemin katta, müzeyle aynı saatlerde her gün 11:00–22:00 açık; mevsimlik menü, vejetaryen ve çocuk menüsü var.<br/><a href="https://www.google.com/maps/search/?api=1&query=55.727819,37.601637">Google Maps</a> · <a href="https://yandex.ru/maps/?pt=37.601637,55.727819&z=17&l=map">Yandex Maps</a>]]></description><styleUrl>#evening</styleUrl><Point><coordinates>37.601637,55.727819,0</coordinates></Point></Placemark><Placemark><name>Alexey Kozlov Club</name><description><![CDATA[Dec 26 · Akşam 19:30+<br/>Клуб Алексея Козлова<br/>ул. Маросейка, 9/2, стр. 1 (2–4 этаж), Москва<br/>Durum: açık<br/>Saksofoncu Aleksey Kozlov'un adını taşıyan, birden fazla sahneli büyük caz kulübü (caz, blues, füzyon + restoran/bar); Kitay-gorod metrosuna yürüme mesafesinde. Konserler genelde 19:30–20:30'da başlıyor, biletleri önceden almak gerekiyor (Eylül–Ekim 2026 programı yayında).<br/><a href="https://www.google.com/maps/search/?api=1&query=55.757758,37.633646">Google Maps</a> · <a href="https://yandex.ru/maps/?pt=37.633646,55.757758&z=17&l=map">Yandex Maps</a>]]></description><styleUrl>#evening</styleUrl><Point><coordinates>37.633646,55.757758,0</coordinates></Point></Placemark><Placemark><name>Noor Electro</name><description><![CDATA[Dec 27 · Akşam 19:30+<br/>Noor Electro<br/>Тверская ул., 23/12, стр. 1, Москва<br/>Durum: açık<br/>Planlardaki isim doğru: Tverskaya'daki 'efsane' kokteyl barı Noor Electro (eski Noor Bar), Yandex'te 'Хорошее место 2026' ödüllü. Art-deco salon, imza kokteyller ve hafta sonları DJ; genelde 03:00'e, Cuma–Cumartesi sabaha kadar açık (Pushkinskaya/Tverskaya metro).<br/><a href="https://www.google.com/maps/search/?api=1&query=55.766962,37.600761">Google Maps</a> · <a href="https://yandex.ru/maps/?pt=37.600761,55.766962&z=17&l=map">Yandex Maps</a>]]></description><styleUrl>#evening</styleUrl><Point><coordinates>37.600761,55.766962,0</coordinates></Point></Placemark><Placemark><name>Gipsy Bar</name><description><![CDATA[Dec 28 · Akşam 19:30+<br/>VK Gipsy (Джипси)<br/>Болотная наб., 3, стр. 4, арт-квартал «Красный Октябрь», Москва<br/>Durum: açık<br/>Hâlâ Kızıl Ekim (Krasny Oktyabr) adasında, çatı/teras katlarında çalışıyor; 2023'ten beri VK'ya ait ve adı 'VK Gipsy' (Yandex 'Хорошее место 2026', Kasım–Aralık 2026 konserleri satışta). DİKKAT: kulüp normalde sadece hafta sonu geceleri (Cuma–Cumartesi, bazen Perşembe; ~22:00/23:00'ten sabaha) açık ve sıkı face-control var — plandaki 28 Aralık Pazartesi; o gece etkinlik olup olmadığını önceden kontrol edin.<br/><a href="https://www.google.com/maps/search/?api=1&query=55.739702,37.610095">Google Maps</a> · <a href="https://yandex.ru/maps/?pt=37.610095,55.739702&z=17&l=map">Yandex Maps</a>]]></description><styleUrl>#evening</styleUrl><Point><coordinates>37.610095,55.739702,0</coordinates></Point></Placemark><Placemark><name>Depo Food Mall</name><description><![CDATA[Dec 30 · Akşam 19:30+<br/>Депо.Москва (фудмолл «Депо» на Лесной)<br/>Лесная ул., 20, стр. 3, Москва<br/>Şube: Лесная ул. (ana/ilk Depo; 'Депо Три вокзала' ayrı bir şube)<br/>Durum: açık<br/>1874'ten kalma eski tramvay/troleybüs deposunda, 2019'da açılan dev gastronomi mahallesi: onlarca restoran/büfe, barlar ve ortak masalar; Belorusskaya/Mendeleyevskaya metrosuna yakın. Saatler Pzt–Per ve Paz 10:00–23:00, Cu–Ct 10:00–02:00 (30 Aralık Çarşamba → 23:00'te kapanır); Eylül–Ekim 2026 etkinlik programı yayında.<br/><a href="https://www.google.com/maps/search/?api=1&query=55.78019,37.592998">Google Maps</a> · <a href="https://yandex.ru/maps/?pt=37.592998,55.78019&z=17&l=map">Yandex Maps</a>]]></description><styleUrl>#evening</styleUrl><Point><coordinates>37.592998,55.78019,0</coordinates></Point></Placemark><Placemark><name>Mutabor Club (KAPANMIŞ)</name><description><![CDATA[Dec 31 · Akşam 19:30+<br/>Мутабор (Mutabor; 2024'ten itibaren ARMA)<br/>Шарикоподшипниковская ул., 13, стр. 32 (территория ГПЗ-1), Москва<br/>Durum: KAPANMIŞ<br/>KAPANDI: Aralık 2023'teki 'yarı çıplak' parti skandalından sonra 90 gün kapatıldı, Mart 2024'te adı ARMA oldu; ARMA Ocak 2025'te bu mekândaki işletmeyi Nisan 2025 sezon sonunda bitireceğini duyurdu. Aynı mekânda 26 Temmuz 2025'ten beri Private Persons ekibinin açtığı DEX kulübü çalışıyor — koordinat bu binadaki DEX noktası.<br/>Dubrovka metrosu yakınında, eski 1. Devlet Rulman Fabrikası (GPZ-1) binasındaki büyük tekno/sanat kulübüydü. Yılbaşı için Mutabor artık yok; aynı binadaki DEX kulübünün 2026 sezon programında 31 Aralık–2 Ocak 'DEX NEW YEAR' partisi (erken kayıt) listeleniyor — en yakın alternatif.<br/><a href="https://www.google.com/maps/search/?api=1&query=55.71966,37.686501">Google Maps</a> · <a href="https://yandex.ru/maps/?pt=37.686501,55.71966&z=17&l=map">Yandex Maps</a>]]></description><styleUrl>#problem</styleUrl><Point><coordinates>37.686501,55.71966,0</coordinates></Point></Placemark><Placemark><name>Tekhnikum</name><description><![CDATA[Jan 01 · Akşam 19:30+<br/>Техникум (Tehnikum)<br/>ул. Большая Дмитровка, 7/5, стр. 2, Москва<br/>Şube: Большая Дмитровка (ana şube); ayrıca Atrium AVM'de (Kurskaya) şubesi var<br/>Durum: açık<br/>Planlardaki 'Tekhnikum' = White Rabbit Family'nin (şef Vladimir Mukhin) daha uygun fiyatlı gastro-bistrosu Tehnikum; Teatralnaya/Okhotny Ryad yakınında, loft iç mekân ve büyük fresk. Yandex'te 'Хорошее место 2026'; genelde ~00:00'a (Cu–Ct ~02:00'ye) kadar açık, ortalama hesap ~1.000–3.000 ₽. 1 Ocak (Cuma) tatil saatleri farklı olabilir, rezervasyon önerilir.<br/><a href="https://www.google.com/maps/search/?api=1&query=55.76079,37.61484">Google Maps</a> · <a href="https://yandex.ru/maps/?pt=37.61484,55.76079&z=17&l=map">Yandex Maps</a>]]></description><styleUrl>#evening</styleUrl><Point><coordinates>37.61484,55.76079,0</coordinates></Point></Placemark><Placemark><name>Veladora</name><description><![CDATA[Jan 02 · Akşam 19:30+<br/>Veladora (Веладора)<br/>ул. Покровка, 2/1, стр. 1 (цокольный этаж), Москва<br/>Durum: açık<br/>Yandex'te açık görünüyor (4.9, 3.163 oy; en yeni tarihli yorum Kasım 2025); 2GIS 'işletme verisini uzun süredir güncellemedi' diyor ama kapalı işaretlemiyor. Kapanış haberi bulunamadı.<br/>Plan doğru: Voda barının ekibinden (Rubanenko &amp; Bgantsov) bodrum katta Meksika mezcal barı; mezcal, tekila ve taco (yanak eti, domuz, tavuk, vejetaryen) meşhur, hafta sonu gece dans ediliyor. Kitay-gorod/Lubyanka yakınında, akşam 18:00'de açılıyor, Perşembe–Cumartesi sabaha (~05:00) kadar; küçük mekân, hafta sonu kalabalık olur.<br/><a href="https://www.google.com/maps/search/?api=1&query=55.758247,37.640041">Google Maps</a> · <a href="https://yandex.ru/maps/?pt=37.640041,55.758247&z=17&l=map">Yandex Maps</a>]]></description><styleUrl>#evening</styleUrl><Point><coordinates>37.640041,55.758247,0</coordinates></Point></Placemark><Placemark><name>Strelka Bar</name><description><![CDATA[Jan 03 · Akşam 19:30+<br/>Бар «Стрелка» (Strelka Bar)<br/>Берсеневская наб., 14, стр. 5, арт-квартал «Красный Октябрь», Москва<br/>Durum: açık<br/>Strelka Enstitüsü Şubat 2022'de faaliyetini süresiz askıya aldı, ancak bar ayrı olarak çalışmaya devam ediyor: 31 Aralık 2025 yılbaşı partisi düzenlendi, Eylül 2025'te 15. yaşını kutladı, Yandex/2GIS'te açık görünüyor.<br/>Kızıl Ekim adasının ucunda, Kurtarıcı İsa Katedrali manzaralı efsane bar; yazın çatı terası meşhur, kışın iç salon. Cuma–Cumartesi geceleri DJ'li kulübe dönüşüyor (face-control). Bildirilen saatler Paz–Per 12:00–23:00, Cu–Ct 12:00–03:00; ancak Eylül 2026'da Yandex 'Cumaya kadar kapalı' gösteriyordu — kış programı kısıtlı olabilir, 3 Ocak (Pazar) için önceden teyit edin.<br/><a href="https://www.google.com/maps/search/?api=1&query=55.74259,37.609317">Google Maps</a> · <a href="https://yandex.ru/maps/?pt=37.609317,55.74259&z=17&l=map">Yandex Maps</a>]]></description><styleUrl>#evening</styleUrl><Point><coordinates>37.609317,55.74259,0</coordinates></Point></Placemark></Folder><Folder><name>Moskova · Ulaşım</name><Placemark><name>Leningradsky Railway Station (Sapsan departure)</name><description><![CDATA[Jan 04 · Çalışma 08:00-16:00<br/>Ленинградский вокзал<br/>Комсомольская площадь, 3, Москва<br/>Durum: açık<br/>Sapsan hızlı trenlerinin St. Petersburg'a kalktığı Moskova terminali; 'Üç İstasyon' (Komsomolskaya) Meydanı'nda, metro Komsomolskaya. Ağustos 2024'ten beri süren kapsamlı yenilemenin ardından 22 Mayıs 2026'da yeniden açıldı; bekleme alanı üç katına çıktı.<br/><a href="https://www.google.com/maps/search/?api=1&query=55.776261,37.655328">Google Maps</a> · <a href="https://yandex.ru/maps/?pt=37.655328,55.776261&z=17&l=map">Yandex Maps</a>]]></description><styleUrl>#transport</styleUrl><Point><coordinates>37.655328,55.776261,0</coordinates></Point></Placemark></Folder><Folder><name>St. Petersburg · Ulaşım</name><Placemark><name>Moskovsky Railway Station (Sapsan arrival)</name><description><![CDATA[Jan 04 · Çalışma 08:00-16:00<br/>Московский вокзал<br/>Невский проспект, 85, Санкт-Петербург<br/>Durum: açık<br/>Sapsan trenlerinin St. Petersburg'daki varış terminali; Vosstaniya Meydanı'nda, Nevsky Prospekt'in doğu ucunda. En yakın metro: Ploshchad Vosstaniya / Mayakovskaya.<br/><a href="https://www.google.com/maps/search/?api=1&query=59.928717,30.362433">Google Maps</a> · <a href="https://yandex.ru/maps/?pt=30.362433,59.928717&z=17&l=map">Yandex Maps</a>]]></description><styleUrl>#transport</styleUrl><Point><coordinates>30.362433,59.928717,0</coordinates></Point></Placemark><Placemark><name>Pulkovo Airport</name><description><![CDATA[Jan 14 · Akşam 19:30+<br/>Аэропорт Пулково (пассажирский терминал)<br/>Пулковское шоссе, 41, Санкт-Петербург<br/>Durum: açık<br/>St. Petersburg'un tek uluslararası havalimanı; iç ve dış hatlar aynı birleşik yolcu terminalinde. Şehir merkezine ~20 km güneyde; metro Moskovskaya'dan otobüs ya da taksiyle ulaşılır.<br/><a href="https://www.google.com/maps/search/?api=1&query=59.79949,30.270055">Google Maps</a> · <a href="https://yandex.ru/maps/?pt=30.270055,59.79949&z=17&l=map">Yandex Maps</a>]]></description><styleUrl>#transport</styleUrl><Point><coordinates>30.270055,59.79949,0</coordinates></Point></Placemark></Folder><Folder><name>St. Petersburg · Gezi</name><Placemark><name>Nevsky Prospect</name><description><![CDATA[Jan 04 · Gezi 16:00-19:30<br/>Невский проспект<br/>Невский проспект (Казанский мост через канал Грибоедова), Санкт-Петербург<br/>Durum: açık<br/>Şehrin ana caddesi (~4,5 km, Amirallık'tan Aleksandr Nevski Lavrası'na). Pin orta noktada: Kazan Katedrali karşısında, Griboyedov Kanalı üzerindeki Kazansky Köprüsü; metro Nevsky Prospekt / Gostiny Dvor.<br/><a href="https://www.google.com/maps/search/?api=1&query=59.935294,30.326362">Google Maps</a> · <a href="https://yandex.ru/maps/?pt=30.326362,59.935294&z=17&l=map">Yandex Maps</a>]]></description><styleUrl>#afternoon</styleUrl><Point><coordinates>30.326362,59.935294,0</coordinates></Point></Placemark><Placemark><name>State Hermitage Museum (Winter Palace)</name><description><![CDATA[Jan 05 · Gezi 16:00-19:30<br/>Государственный Эрмитаж (Зимний дворец)<br/>Дворцовая площадь, 2 (Дворцовая набережная, 38), Санкт-Петербург<br/>Durum: açık<br/>Ermitaj'ın ana binası Kışlık Saray; giriş Saray Meydanı'ndaki büyük avludan. 2026 saatleri: Salı/Cuma/Cumartesi 11:00–20:00, Çarşamba/Perşembe/Pazar 11:00–18:00, Pazartesi kapalı; seanslı bilet, gişe kapanıştan 1 saat önce kapanır — 5 Ocak 2027 Salı, 16:00 sonrası ziyaret uygun.<br/><a href="https://www.google.com/maps/search/?api=1&query=59.940278,30.313889">Google Maps</a> · <a href="https://yandex.ru/maps/?pt=30.313889,59.940278&z=17&l=map">Yandex Maps</a>]]></description><styleUrl>#afternoon</styleUrl><Point><coordinates>30.313889,59.940278,0</coordinates></Point></Placemark><Placemark><name>Church of the Savior on Spilled Blood</name><description><![CDATA[Jan 06 · Gezi 16:00-19:30<br/>Храм Спаса на Крови (Собор Воскресения Христова)<br/>набережная канала Грибоедова, 2Б, Санкт-Петербург<br/>Durum: açık<br/>Normalde Çarşamba kapalı; ancak resmi siteye göre okul tatilleri ve resmi tatillerde (1 Ocak hariç) her gün açık — 6 Ocak 2027 Çarşamba, Yılbaşı tatiline denk geldiği için açık olmalı.<br/>II. Aleksandr'ın suikaste uğradığı yere yapılmış, iç duvarları tamamen mozaik kaplı müze-kilise; Griboyedov Kanalı kıyısında. Saatler 10:00–18:00 (gişe 17:30'a kadar) — 16:00'da gelirseniz ~1,5 saatiniz olur.<br/><a href="https://www.google.com/maps/search/?api=1&query=59.940091,30.328844">Google Maps</a> · <a href="https://yandex.ru/maps/?pt=30.328844,59.940091&z=17&l=map">Yandex Maps</a>]]></description><styleUrl>#afternoon</styleUrl><Point><coordinates>30.328844,59.940091,0</coordinates></Point></Placemark><Placemark><name>Kazan Cathedral</name><description><![CDATA[Jan 07 · Gezi 16:00-19:30<br/>Казанский кафедральный собор<br/>Казанская площадь, 2, Санкт-Петербург<br/>Durum: açık<br/>Nevsky Prospekt üzerindeki yarım daire sütunlu, aktif Ortodoks katedrali (Kazan Meryem Ana ikonası burada); giriş ücretsiz. 7 Ocak Ortodoks Noeli'nde ayinler ve kalabalık beklenir; omuz/diz kapalı kıyafet, kadınlar için başörtüsü önerilir.<br/><a href="https://www.google.com/maps/search/?api=1&query=59.934228,30.324594">Google Maps</a> · <a href="https://yandex.ru/maps/?pt=30.324594,59.934228&z=17&l=map">Yandex Maps</a>]]></description><styleUrl>#afternoon</styleUrl><Point><coordinates>30.324594,59.934228,0</coordinates></Point></Placemark><Placemark><name>Peter and Paul Fortress</name><description><![CDATA[Jan 08 · Gezi 16:00-19:30<br/>Петропавловская крепость<br/>Петропавловская крепость, 3, Заячий остров, Санкт-Петербург<br/>Durum: açık<br/>Şehrin kurulduğu kale (Zayachy Adası); içinde Romanov çarlarının mezarlarının bulunduğu Petropavlovsk Katedrali var. Ada her gün sabahtan ~21:30'a kadar serbest gezilebilir; katedral/müzeler için gişeler ~18:00'de kapanır, 16:00'da gidip önce katedrale girin. Metro: Gorkovskaya.<br/><a href="https://www.google.com/maps/search/?api=1&query=59.950064,30.31643">Google Maps</a> · <a href="https://yandex.ru/maps/?pt=30.31643,59.950064&z=17&l=map">Yandex Maps</a>]]></description><styleUrl>#afternoon</styleUrl><Point><coordinates>30.31643,59.950064,0</coordinates></Point></Placemark><Placemark><name>New Holland Island</name><description><![CDATA[Jan 09 · Gezi 16:00-19:30<br/>Новая Голландия<br/>набережная Адмиралтейского канала, 2, Санкт-Петербург<br/>Durum: açık<br/>Ada açık; buz pisti sezonluk — 2026/27 sezonu için tarih ve seans saatlerini Aralık'ta newhollandsp.ru'dan kontrol edin.<br/>Eski tersane adası; bugün park, kafe-restoran ve etkinlik alanı. Kışın ortadaki havuz buz pistine dönüşür (2025/26 sezonu 15 Kasım–15 Mart, 1 saatlik seanslar, 200–800 ₽) — 2026/27 tarihleri henüz açıklanmadı.<br/><a href="https://www.google.com/maps/search/?api=1&query=59.929616,30.289735">Google Maps</a> · <a href="https://yandex.ru/maps/?pt=30.289735,59.929616&z=17&l=map">Yandex Maps</a>]]></description><styleUrl>#afternoon</styleUrl><Point><coordinates>30.289735,59.929616,0</coordinates></Point></Placemark><Placemark><name>State Russian Museum</name><description><![CDATA[Jan 10 · Gezi 16:00-19:30<br/>Государственный Русский музей (Михайловский дворец)<br/>Инженерная улица, 4, Санкт-Петербург<br/>Durum: açık<br/>Dünyanın en büyük Rus sanatı koleksiyonu; ana bina Sanat Meydanı'ndaki Mikhailovsky Sarayı (Aivazovsky'nin 'Dokuzuncu Dalga'sı, Repin, Brüllov). Resmi saatler: Pazartesi ve Çarşamba–Pazar 10:00–20:00, Salı kapalı — 10 Ocak 2027 Pazar ziyareti uygun. Metro: Nevsky Prospekt / Gostiny Dvor.<br/><a href="https://www.google.com/maps/search/?api=1&query=59.938592,30.332221">Google Maps</a> · <a href="https://yandex.ru/maps/?pt=30.332221,59.938592&z=17&l=map">Yandex Maps</a>]]></description><styleUrl>#afternoon</styleUrl><Point><coordinates>30.332221,59.938592,0</coordinates></Point></Placemark><Placemark><name>Mariinsky Theatre</name><description><![CDATA[Jan 11 · Gezi 16:00-19:30<br/>Мариинский театр (историческая сцена)<br/>Театральная площадь, 1, Санкт-Петербург<br/>Durum: açık<br/>Tarihi bina, Lermontovsky Prospekt'teki 4. sahne bitince uzun restorasyona girecek (tamamlanma ~2032 öngörülüyor); Ekim 2026 afişinde tarihi sahnede gösteri var, Ocak 2027 programını kontrol edin.<br/>1860'tan beri bale ve operanın tarihi ana sahnesi (mavi-altın salon, Golovin perdesi); Kryukov Kanalı'nın karşısında modern Mariinsky-2 var. Akşam gösterileri genelde 19:00'da — bilet mariinsky.ru'dan.<br/><a href="https://www.google.com/maps/search/?api=1&query=59.92543,30.295909">Google Maps</a> · <a href="https://yandex.ru/maps/?pt=30.295909,59.92543&z=17&l=map">Yandex Maps</a>]]></description><styleUrl>#afternoon</styleUrl><Point><coordinates>30.295909,59.92543,0</coordinates></Point></Placemark><Placemark><name>St. Isaac's Cathedral &amp; Colonnade</name><description><![CDATA[Jan 12 · Gezi 16:00-19:30<br/>Исаакиевский собор и колоннада<br/>Исаакиевская площадь, 4, Санкт-Петербург<br/>Durum: açık<br/>Katedral Çarşamba kapalı, kolonad Ekim–Nisan arası ayın 3. Çarşambası kapalı (ikisi de 1 Ocak kapalı); ziyaret günü Salı olduğu için sorun yok.<br/>Altın kubbeli dev katedral-müze; kubbe çevresindeki kolonad (seyir terası, ayrı bilet, ~260 basamak) şehrin en iyi panoramalarından. Resmi saatler: katedral 10:00–18:00 (gişe 17:30), kolonad 10:00–18:00 — 12 Ocak 2027 Salı açık; Güneş ~16:20'de battığı için 16:00'da önce kolonada çıkın.<br/><a href="https://www.google.com/maps/search/?api=1&query=59.934047,30.30595">Google Maps</a> · <a href="https://yandex.ru/maps/?pt=30.30595,59.934047&z=17&l=map">Yandex Maps</a>]]></description><styleUrl>#afternoon</styleUrl><Point><coordinates>30.30595,59.934047,0</coordinates></Point></Placemark><Placemark><name>Sevkabel Port</name><description><![CDATA[Jan 13 · Gezi 16:00-19:30<br/>Севкабель Порт<br/>Кожевенная линия, 40, Васильевский остров, Санкт-Петербург<br/>Durum: açık<br/>Eylül 2026 itibarıyla faal: resmi sitede Ekim–Aralık 2026 etkinlikleri listeleniyor.<br/>Vasilyevsky Adası'nın ucunda, Fin Körfezi kıyısında eski kablo fabrikasından dönüştürülmüş kültür alanı: kafe-barlar, konser/etkinlik salonları, sahil promenadı. Giriş ücretsiz; kafe ve mekânların çoğu 10:00–23:00, barlar daha geç; 2025/26 kışında 'Горка у моря' kızak tepesi vardı.<br/><a href="https://www.google.com/maps/search/?api=1&query=59.924553,30.240998">Google Maps</a> · <a href="https://yandex.ru/maps/?pt=30.240998,59.924553&z=17&l=map">Yandex Maps</a>]]></description><styleUrl>#afternoon</styleUrl><Point><coordinates>30.240998,59.924553,0</coordinates></Point></Placemark></Folder><Folder><name>St. Petersburg · Akşam</name><Placemark><name>Pelmenya</name><description><![CDATA[Jan 04 · Akşam 19:30+<br/>Пельмения<br/>наб. реки Фонтанки, 25, Санкт-Петербург<br/>Şube: Fontanka 25 şubesi (şehirde birden çok şubesi var; en merkezi ve en çok beğenileni bu)<br/>Durum: açık<br/>Dünyanın farklı mutfaklarından hamur işleri (Rus pelmenisi, vareniki, hinkali, mantı, gyoza, ravioli) sunan zincir restoran; Nevsky/Aniçkov köprüsüne birkaç dakika. Her gün 11:00–23:00, ortalama hesap ~700–1000 ₽.<br/><a href="https://www.google.com/maps/search/?api=1&query=59.934247,30.342952">Google Maps</a> · <a href="https://yandex.ru/maps/?pt=30.342952,59.934247&z=17&l=map">Yandex Maps</a>]]></description><styleUrl>#evening</styleUrl><Point><coordinates>30.342952,59.934247,0</coordinates></Point></Placemark><Placemark><name>Union Bar</name><description><![CDATA[Jan 04 · Akşam 19:30+<br/>Юнион<br/>Литейный просп., 55, Санкт-Петербург<br/>Durum: açık<br/>Fartuk kafesinin kurucularının Liteyny'de açtığı kalabalık parti barı: hafta içi canlı konserler, hafta sonu DJ partileri; kokteyl, burger, fıçı bira, yazın avlu. 18:00'den sabaha kadar açık; Mayakovskaya metrosuna yakın.<br/><a href="https://www.google.com/maps/search/?api=1&query=59.935755,30.347775">Google Maps</a> · <a href="https://yandex.ru/maps/?pt=30.347775,59.935755&z=17&l=map">Yandex Maps</a>]]></description><styleUrl>#evening</styleUrl><Point><coordinates>30.347775,59.935755,0</coordinates></Point></Placemark><Placemark><name>El Copitas</name><description><![CDATA[Jan 05 · Akşam 19:30+<br/>Эль Копитас<br/>ул. Колокольная, 2/18 (Владимирский пр., 18, вход через ворота во двор), Санкт-Петербург<br/>Durum: açık<br/>World's 50 Best Bars listesine girmiş, tabelasız Meksika temalı speakeasy kokteyl barı (Şubat 2025'te yenilendi), 19:00'dan itibaren yalnızca rezervasyonla. Rezervasyon: elcopitasbar.com'daki form, Telegram @elcopitas_spb veya +7 921 941-71-68; gelmeden arayın, avlu kapısında karşılanırsınız.<br/><a href="https://www.google.com/maps/search/?api=1&query=59.929301,30.348582">Google Maps</a> · <a href="https://yandex.ru/maps/?pt=30.348582,59.929301&z=17&l=map">Yandex Maps</a>]]></description><styleUrl>#evening</styleUrl><Point><coordinates>30.348582,59.929301,0</coordinates></Point></Placemark><Placemark><name>Mishka Bar</name><description><![CDATA[Jan 06 · Akşam 19:30+<br/>Мишка (Mishka)<br/>Конногвардейский бул., 4, Санкт-Петербург<br/>Durum: taşınmış<br/>Bar yaklaşık 10 yıl Fontanka 40'taydı; Eylül 2021'de Konnogvardeyski bulvarı 4'teki yeni mekâna taşındı (eski rehberlerdeki Fontanka adresi artık geçersiz).<br/>Kült dans barı: tuğla tonozlu, büyük kemerli pencereli salon; gündüz kafe, akşam kokteyl bar, cuma–cumartesi geceleri DJ ve dans pisti. İsaakiyevski Sobor/Admiralteyskaya metrosu yakınında, her gün 17:00'den itibaren bar (hafta sonu ~03:00'a kadar).<br/><a href="https://www.google.com/maps/search/?api=1&query=59.932984,30.29881">Google Maps</a> · <a href="https://yandex.ru/maps/?pt=30.29881,59.932984&z=17&l=map">Yandex Maps</a>]]></description><styleUrl>#evening</styleUrl><Point><coordinates>30.29881,59.932984,0</coordinates></Point></Placemark><Placemark><name>Severyanin</name><description><![CDATA[Jan 07 · Akşam 19:30+<br/>Северянин<br/>Столярный пер., 18/69, Санкт-Петербург<br/>Durum: açık<br/>Eski bir Petersburg dairesi dekorunda Rus Kuzeyi mutfağı (geyik eti, balık, sugudai, kuzey meyveli likörler) sunan restoran; Sennaya meydanı yakınında. Ortalama hesap ~1.500–1.900 ₽; akşam yemeği için rezervasyon önerilir.<br/><a href="https://www.google.com/maps/search/?api=1&query=59.926478,30.313065">Google Maps</a> · <a href="https://yandex.ru/maps/?pt=30.313065,59.926478&z=17&l=map">Yandex Maps</a>]]></description><styleUrl>#evening</styleUrl><Point><coordinates>30.313065,59.926478,0</coordinates></Point></Placemark><Placemark><name>Stackenschneider (KAPANMIŞ)</name><description><![CDATA[Jan 08 · Akşam 19:30+<br/>Stackenschneider (Штакеншнейдер)<br/>Конюшенная пл., 2В (во дворе), Санкт-Петербург<br/>Durum: KAPANMIŞ<br/>Kalıcı olarak kapandı: Afisha 'Закрыто навсегда', Yandex Haritalar 'Больше не работает', Foursquare 'Now Closed'; kulübün Telegram kanalındaki son duyurularda partiler başka kulüplere (Blank, History) taşınmış. Ocak 2027 için alternatif bir elektronik müzik kulübü seçilmeli.<br/>Adını mimar Andrey Stakenşneyder'den alan, bağımsız elektronik müzik sahnesine (house/techno, yerel DJ'ler, yazın çatı terası) odaklanan underground kulüptü; 2014'te Millionnaya'dan Konyuşennaya meydanındaki avluya taşınmıştı.<br/><a href="https://www.google.com/maps/search/?api=1&query=59.939594,30.326861">Google Maps</a> · <a href="https://yandex.ru/maps/?pt=30.326861,59.939594&z=17&l=map">Yandex Maps</a>]]></description><styleUrl>#problem</styleUrl><Point><coordinates>30.326861,59.939594,0</coordinates></Point></Placemark><Placemark><name>Orthodox Russian Bar</name><description><![CDATA[Jan 09 · Akşam 19:30+<br/>Orthodox (русский бар «Ортодокс»)<br/>ул. Восстания, 4, Санкт-Петербург<br/>Durum: taşınmış<br/>Uzun yıllar Rubinştejna ul. 2'deydi; Kasım 2024'te Vosstaniya ul. 4'teki daha büyük tuğla tonozlu mekâna taşındı (eski rehberlerde hâlâ Rubinştejna 2 yazıyor).<br/>Planda geçen bar bu: yalnızca Rusya ve eski Sovyet ülkelerinin içkileriyle (samogon, tahıl distilatları, Dağıstan şarabı vb.) Rus yazar/sanatçılarına adanmış kokteyller yapan bar. Ploşçad Vosstaniya metrosunun yanında; pazar–perşembe 18:00–02:00, cuma–cumartesi 18:00–04:00.<br/><a href="https://www.google.com/maps/search/?api=1&query=59.9329,30.359133">Google Maps</a> · <a href="https://yandex.ru/maps/?pt=30.359133,59.9329&z=17&l=map">Yandex Maps</a>]]></description><styleUrl>#evening</styleUrl><Point><coordinates>30.359133,59.9329,0</coordinates></Point></Placemark><Placemark><name>Rubinstein Street</name><description><![CDATA[Jan 10 · Akşam 19:30+<br/>улица Рубинштейна<br/>ул. Рубинштейна (от Невского пр. до Пяти углов), Санкт-Петербург<br/>Durum: açık<br/>Nevski Prospekt'ten Beş Köşe'ye (Pyat Uglov) uzanan, onlarca bar ve restoranın yan yana dizildiği şehrin en bilinen bar sokaklarından; pin sokağın ortasında (Rubinştejna 11 civarı). Bar bar gezmek için sokağı baştan sona yürümek yeterli.<br/><a href="https://www.google.com/maps/search/?api=1&query=59.92962,30.344309">Google Maps</a> · <a href="https://yandex.ru/maps/?pt=30.344309,59.92962&z=17&l=map">Yandex Maps</a>]]></description><styleUrl>#evening</styleUrl><Point><coordinates>30.344309,59.92962,0</coordinates></Point></Placemark><Placemark><name>Blank Club (KAPANMIŞ)</name><description><![CDATA[Jan 11 · Akşam 19:30+<br/>Blank (Бланк)<br/>Арсенальная наб., 1, Санкт-Петербург<br/>Durum: KAPANMIŞ<br/>Kulüp Nisan 2026'da kapanacağını duyurdu ve 12–13 Haziran 2026'daki 'Son Rave' partileriyle kapandı; Yandex Haritalar'da 'Больше не работает'. Ocak 2027 için alternatif bir kulüp seçilmeli.<br/>Eski 'Arsenal' makine fabrikasının tuğla tonozlu salonlarında 2018'de açılmış techno/elektronik kulübüydü (Neva'nın Vıborg yakasında, Arsenalnaya rıhtımı).<br/><a href="https://www.google.com/maps/search/?api=1&query=59.954772,30.372051">Google Maps</a> · <a href="https://yandex.ru/maps/?pt=30.372051,59.954772&z=17&l=map">Yandex Maps</a>]]></description><styleUrl>#problem</styleUrl><Point><coordinates>30.372051,59.954772,0</coordinates></Point></Placemark><Placemark><name>Golitsyn Hall (KAPANMIŞ)</name><description><![CDATA[Jan 12 · Akşam 19:30+<br/>Голицын Холл (в креативном пространстве «Голицын Лофт»)<br/>наб. реки Фонтанки, 20, Санкт-Петербург<br/>Durum: KAPANMIŞ<br/>Golitsyn Loft 2020 baharında kapandı; bina Nisan 2020'den beri boş ve Aralık 2023 itibarıyla aktif kullanımda değil. Afisha'da Golitsyn-hall 'kapalı', Yandex'te Golitsyn Loft 'Больше не работает'. Aynı akşam için başka bir mekân seçilmeli.<br/>Planın 'Golitsyn Hall'ü gerçek bir mekândı: Fontanka 20'deki 18. yy Golitsyn konağında kurulan 'Golitsyn Loft' yaratıcı kümesinin içinde konser, parti, sergi ve derslerin yapıldığı salon (kümede onlarca bar/kafe vardı).<br/><a href="https://www.google.com/maps/search/?api=1&query=59.940667,30.341221">Google Maps</a> · <a href="https://yandex.ru/maps/?pt=30.341221,59.940667&z=17&l=map">Yandex Maps</a>]]></description><styleUrl>#problem</styleUrl><Point><coordinates>30.341221,59.940667,0</coordinates></Point></Placemark><Placemark><name>Griboedov Club</name><description><![CDATA[Jan 13 · Akşam 19:30+<br/>Грибоедов<br/>Воронежская ул., 2А, Санкт-Петербург<br/>Durum: açık<br/>1996'da 'Dva Samolyota' grubunun eski bir bomba sığınağında açtığı kült kulüp (Ekim 2026'da 30. yılı); üstündeki cam pavyon 'Griboedov Hill' bar/konser alanı. DJ partileri ve konserler, cuma–pazar sabah 06:00'ya kadar; Ligovsky Prospekt metrosuna yakın.<br/><a href="https://www.google.com/maps/search/?api=1&query=59.919541,30.350641">Google Maps</a> · <a href="https://yandex.ru/maps/?pt=30.350641,59.919541&z=17&l=map">Yandex Maps</a>]]></description><styleUrl>#evening</styleUrl><Point><coordinates>30.350641,59.919541,0</coordinates></Point></Placemark></Folder><Folder><name>St. Petersburg · Çalışma</name><Placemark><name>Mad Espresso Team</name><description><![CDATA[Jan 05 · Çalışma 08:00-16:00<br/>Jan 11 · Çalışma 08:00-16:00<br/>Mad Espresso Team (MET) на Римского-Корсакова<br/>пр. Римского-Корсакова, 3, Санкт-Петербург<br/>Şube: пр. Римского-Корсакова 3 – Sennaya/Spasskaya metrosu, Yusupov Bahçesi karşısı; Mariinsky'ye ~10 dk, Hermitage'a ~25 dk yürüyüş<br/>Durum: açık<br/>Kendi kavurduğu kahve + gün boyu kahvaltı sunan yerel specialty zinciri (MET). Resmi saatler: Pzt 08:00–20:00, Sa–Cu 08:00–22:00, hafta sonu 10:00–22:00; 1–8 Ocak resmi tatilinde saatler değişebilir.<br/><a href="https://www.google.com/maps/search/?api=1&query=59.924459,30.310848">Google Maps</a> · <a href="https://yandex.ru/maps/?pt=30.310848,59.924459&z=17&l=map">Yandex Maps</a>]]></description><styleUrl>#work</styleUrl><Point><coordinates>30.310848,59.924459,0</coordinates></Point></Placemark><Placemark><name>Surf Coffee x Gorokhovaya</name><description><![CDATA[Jan 06 · Çalışma 08:00-16:00<br/>Surf Coffee x G34<br/>Гороховая ул., 34, Санкт-Петербург<br/>Şube: Surf Coffee x G34 – Гороховая 34, Moyka ile Fontanka arası (Sennaya/Sadovaya metrolarına ~7 dk)<br/>Durum: açık<br/>Tuğla tonozlu, sörf temalı Surf şubesi; her gün 09:00–22:00 (08:00'de açık değil), 2GIS'te 5.0 (536 oy).<br/><a href="https://www.google.com/maps/search/?api=1&query=59.92925,30.321156">Google Maps</a> · <a href="https://yandex.ru/maps/?pt=30.321156,59.92925&z=17&l=map">Yandex Maps</a>]]></description><styleUrl>#work</styleUrl><Point><coordinates>30.321156,59.92925,0</coordinates></Point></Placemark><Placemark><name>Civil Coffee Bar</name><description><![CDATA[Jan 07 · Çalışma 08:00-16:00<br/>Jan 13 · Çalışma 08:00-16:00<br/>Civil (CVL Coffee)<br/>Волынский пер., 8 (Яндекс: д. 6), цокольный этаж, Санкт-Петербург<br/>Şube: Волынский пер. 8 – Nevsky Prospekt / Gostiny Dvor metrolarına ~5 dk, Moyka ve Saray Meydanı'na yakın (2 şubeden merkezdeki)<br/>Durum: açık<br/>Kaliteli kahve ve gün boyu kahvaltı sunan sakin, minimalist kafe; Yandex'te 5.0 (2.600+ oy). Resmi saatler Pzt–Per ve Paz 09:00–20:00, Cum–Cmt 09:00–21:00 — 08:00'de açık değil. Diğer şube: Большой пр. П.С. 71А (Petrogradskaya).<br/><a href="https://www.google.com/maps/search/?api=1&query=59.938434,30.321776">Google Maps</a> · <a href="https://yandex.ru/maps/?pt=30.321776,59.938434&z=17&l=map">Yandex Maps</a>]]></description><styleUrl>#work</styleUrl><Point><coordinates>30.321776,59.938434,0</coordinates></Point></Placemark><Placemark><name>Smena Cafe</name><description><![CDATA[Jan 08 · Çalışma 08:00-16:00<br/>Jan 14 · Çalışma 08:00-16:00<br/>Смена<br/>Басков пер., 20, Санкт-Петербург<br/>Şube: Басков пер. 20 – tek şube (Chernyshevskaya ile Ploshchad Vosstaniya arası)<br/>Durum: açık<br/>Double B'nin eski baristalarının açtığı İskandinav-minimal, aydınlık kafe; hafta içi 08:00–20:00, hafta sonu 09:00–20:00, 2GIS'te 4.8. Dikkat: kaynaklara göre bilinçli olarak Wi‑Fi yok (laptopla oturmaya izin var) — mobil internet/hotspot gerekir.<br/><a href="https://www.google.com/maps/search/?api=1&query=59.939606,30.359704">Google Maps</a> · <a href="https://yandex.ru/maps/?pt=30.359704,59.939606&z=17&l=map">Yandex Maps</a>]]></description><styleUrl>#work</styleUrl><Point><coordinates>30.359704,59.939606,0</coordinates></Point></Placemark><Placemark><name>Verle Garden</name><description><![CDATA[Jan 09 · Çalışma 08:00-16:00<br/>Verlé (бывш. Verlé Garden)<br/>Каменноостровский просп., 25/2, Санкт-Петербург<br/>Şube: Каменноостровский пр. 25/2 – Petrogradskaya metrosu yakını, Nizami Bahçesi'nin yanında (tek kafe)<br/>Durum: açık<br/>Bir çiftin açtığı, bitkilerle dolu minimalist specialty kahve kafesi + showroom; bugün listelerde sadece 'Verlé' adıyla geçiyor. Saatler 10:00–21:00 (08:00'de açık değil); 2GIS 4.8, Yandex 4.6, Wi‑Fi var.<br/><a href="https://www.google.com/maps/search/?api=1&query=59.963328,30.314528">Google Maps</a> · <a href="https://yandex.ru/maps/?pt=30.314528,59.963328&z=17&l=map">Yandex Maps</a>]]></description><styleUrl>#work</styleUrl><Point><coordinates>30.314528,59.963328,0</coordinates></Point></Placemark><Placemark><name>Aster Cafe</name><description><![CDATA[Jan 10 · Çalışma 08:00-16:00<br/>Aster (Астер)<br/>ул. Маяковского, 23/6, 1 этаж, Санкт-Петербург<br/>Şube: ул. Маяковского 23/6 – ilk ve en bilinen şube (Chernyshevskaya metrosu, Tavriçeski Bahçesi'ne yakın); diğerleri Римского-Корсакова 22 ve Рыбацкая 2<br/>Durum: açık<br/>Ronny ve Gills'in kurucularından kahve + kendi fırını + kahvaltı + şarap konseptli şehir kafesi (WhereToEat 2024 ödüllü). Her gün 09:00–23:00 (08:00'de açık değil); 2GIS 4.8, kalabalık ve sıra olabilir.<br/><a href="https://www.google.com/maps/search/?api=1&query=59.939691,30.355508">Google Maps</a> · <a href="https://yandex.ru/maps/?pt=30.355508,59.939691&z=17&l=map">Yandex Maps</a>]]></description><styleUrl>#work</styleUrl><Point><coordinates>30.355508,59.939691,0</coordinates></Point></Placemark><Placemark><name>Surf Coffee x Fontanka</name><description><![CDATA[Jan 12 · Çalışma 08:00-16:00<br/>Surf Coffee x Chizhik<br/>ул. Пестеля, 13-15, Санкт-Петербург<br/>Şube: Surf Coffee x Chizhik – Пестеля 13-15; Fontanka rıhtımına ~250 m, adını Fontanka'daki Çijik-Pijik heykelinden alıyor<br/>Durum: açık<br/>'Surf Coffee x Fontanka' adında şube yok; resmi sitede 'Fontanka rıhtımının yanında' diye tanıtılan tek şube Chizhik. Her gün 09:00–22:00, laptopla çalışmaya uygun, Wi‑Fi; Yaz Bahçesi ve Mars Tarlası'na yürüme mesafesinde.<br/><a href="https://www.google.com/maps/search/?api=1&query=59.942421,30.34298">Google Maps</a> · <a href="https://yandex.ru/maps/?pt=30.34298,59.942421&z=17&l=map">Yandex Maps</a>]]></description><styleUrl>#work</styleUrl><Point><coordinates>30.34298,59.942421,0</coordinates></Point></Placemark></Folder></Document></kml>
